STARLINK-4581           
1 53576U 22101BB  24269.74030252  .00000778  00000+0  66960-4 0  9990
2 53576  53.2156 272.9547 0001390  92.3608 267.7543 15.08846118117260
STARLINK-4553           
1 53577U 22101BC  24269.73566206  .00000450  00000+0  46349-4 0  9999
2 53577  53.2160 272.9252 0001464  87.9418 272.1742 15.08840318117267
STARLINK-4556           
1 53578U 22101BD  24269.72460585  .00000600  00000+0  55800-4 0  9991
2 53578  53.2164 272.8620 0001447  92.8314 267.2844 15.08845859116443
STARLINK-4580           
1 53579U 22101BE  24269.72092209  .00001126  00000+0  88843-4 0  9993
2 53579  53.2162 272.8387 0001316  93.7980 266.3163 15.08842727116441
STARLINK-4691           
1 53588U 22104A   24269.91696824  .00000039  00000+0  20532-4 0  9993
2 53588  53.2181 102.6111 0001670  91.0116 269.1067 15.08838433116119
STARLINK-4673           
1 53589U 22104B   24269.83229953  .00001357  00000+0  10330-3 0  9998
2 53589  53.2151 102.7927 0001003  84.2467 275.8639 15.08840243115958
STARLINK-4689           
1 53590U 22104C   24269.84704139  .00000456  00000+0  46738-4 0  9996
2 53590  53.2188 102.8852 0001646  89.0503 271.0677 15.08840539115975
STARLINK-4674           
1 53591U 22104D   24269.90959380  .00000078  00000+0  22976-4 0  9992
2 53591  53.2141 102.5644 0001495  91.5538 268.5625 15.08837534115985
STARLINK-4672           
1 53592U 22104E   24269.84062983 -.00000007  00000+0  17693-4 0  9993
2 53592  53.2198 102.8452 0001757  89.4613 270.6580 15.08835946115955
STARLINK-4671           
1 53593U 22104F   24269.91309531  .00037610  00000+0  19167-2 0  9990
2 53593  53.2091 101.1860 0003748 224.3345 135.7351 15.16437696115986
STARLINK-4681           
1 53594U 22104G   24269.55996713 -.00000680  00000+0 -24653-4 0  9992
2 53594  53.2145 103.9381 0001396  86.9672 273.1480 15.08842518116050
STARLINK-4684           
1 53595U 22104H   24269.82860068 -.00004555  00000+0 -26806-3 0  9992
2 53595  53.2128 102.7699 0001535  85.2463 274.8704 15.08866331115950
STARLINK-4668           
1 53596U 22104J   24269.54939949  .00052349  00000+0  20517-2 0  9991
2 53596  53.2141  91.3193 0003749 123.4904 236.6454 15.25285771115075
STARLINK-4682           
1 53597U 22104K   24269.91667824  .00641997  00000+0  60296-2 0  9994
2 53597  53.2197  92.1403 0000294 303.7557  16.6787 15.64586097  5722
STARLINK-4676           
1 53598U 22104L   24269.80281548  .00000238  00000+0  33051-4 0  9996
2 53598  53.2128 102.6094 0001447  87.0507 273.0651 15.08845463115621
STARLINK-4677           
1 53600U 22104N   24269.93265979  .00000055  00000+0  21565-4 0  9998
2 53600  53.2143 102.6917 0001421  87.9146 272.2009 15.08839114115631
STARLINK-4675           
1 53601U 22104P   24269.81387707  .00001177  00000+0  92002-4 0  9990
2 53601  53.2146 102.6791 0001572  92.3483 267.7689 15.08840232115621
STARLINK-4648           
1 53602U 22104Q   24269.81986635  .00001029  00000+0  82712-4 0  9999
2 53602  53.2135  97.7362 0001347  89.8905 270.2241 15.08839146115690
STARLINK-4692           
1 53603U 22104R   24269.90820838  .00001141  00000+0  89758-4 0  9994
2 53603  53.2142  97.5747 0001556  93.1122 267.0048 15.08844086115705
STARLINK-4690           
1 53604U 22104S   24269.81249593  .00000465  00000+0  47284-4 0  9994
2 53604  53.2162  97.6899 0001466  92.0608 268.0552 15.08840223115692
STARLINK-4693           
1 53605U 22104T   24269.80650621  .00001586  00000+0  11769-3 0  9995
2 53605  53.2155 102.6315 0001976  95.2969 264.8249 15.08844373115626
STARLINK-4590           
1 53606U 22104U   24269.90316452  .00010245  00000+0  66154-3 0  9998
2 53606  53.2227  92.5331 0003688  80.9111 279.2299 15.08800876115652
STARLINK-4591           
1 53607U 22104V   24269.56595800  .00001019  00000+0  82110-4 0  9997
2 53607  53.2168  98.9897 0001280  89.2595 270.8543 15.08841124115658
STARLINK-4647           
1 53608U 22104W   24269.91051627  .00000777  00000+0  66903-4 0  9993
2 53608  53.2138  92.5803 0001507  87.2881 272.8284 15.08844573115656
STARLINK-4660           
1 53609U 22104X   24269.93022734 -.00005264  00000+0 -31265-3 0  9993
2 53609  53.2167  97.0023 0001601  94.1543 265.9632 15.08864168115719
STARLINK-4610           
1 53610U 22104Y   24269.90410552  .00001324  00000+0  10126-3 0  9995
2 53610  53.2136  92.5401 0001846  87.7306 272.3898 15.08844305115653
STARLINK-4650           
1 53611U 22104Z   24269.79592202  .00043013  00000+0  19392-2 0  9990
2 53611  53.2189  84.9865 0006000 258.6746 101.3577 15.20625657115875
STARLINK-4658           
1 53612U 22104AA  24268.97210522  .00000493  00000+0  49044-4 0  9996
2 53612  53.2152  96.6760 0001382  86.0942 274.0208 15.08837978114942
STARLINK-4655           
1 53613U 22104AB  24269.77434996  .00001204  00000+0  93721-4 0  9991
2 53613  53.2138  93.1512 0001036  89.5111 270.6000 15.08843597115639
STARLINK-4605           
1 53616U 22104AE  24269.76420118  .00001404  00000+0  10633-3 0  9996
2 53616  53.2146  82.9217 0001483  90.9343 269.1819 15.08832556115889
STARLINK-4601           
1 53617U 22104AF  24269.89579317  .00000594  00000+0  55408-4 0  9996
2 53617  53.2156  92.4915 0001194  91.1018 269.0111 15.08835501115655
STARLINK-4604           
1 53618U 22104AG  24269.81848442  .00000085  00000+0  23437-4 0  9999
2 53618  53.2142  92.7194 0001491  88.1202 271.9960 15.08839575115068
STARLINK-4609           
1 53619U 22104AH  24269.49465606  .00000697  00000+0  61859-4 0  9990
2 53619  53.2181  94.2518 0001286  96.2895 263.8244 15.08839113115590
STARLINK-4615           
1 53620U 22104AJ  24269.81110615  .00001507  00000+0  11274-3 0  9991
2 53620  53.2147  92.6741 0001434  92.8632 267.2524 15.08845539115756
STARLINK-4608           
1 53621U 22104AK  24269.88840883  .00000607  00000+0  56223-4 0  9990
2 53621  53.2188  92.4465 0001355  97.9239 262.1907 15.08838039115659
STARLINK-4568           
1 53622U 22104AL  24269.92148621  .00000096  00000+0  24130-4 0  9991
2 53622  53.2168  91.9433 0001527 100.3119 259.8045 15.08838536115775
STARLINK-4573           
1 53623U 22104AM  24269.88104001 -.00003046  00000+0 -17337-3 0  9991
2 53623  53.2126  92.3973 0001539  77.6097 282.5067 15.08837860115763
STARLINK-4596           
1 53624U 22104AN  24269.80374052  .00000441  00000+0  45794-4 0  9992
2 53624  53.2168  92.6286 0000894  86.3772 273.7322 15.08842374115751
STARLINK-4603           
1 53625U 22104AP  24269.80742794  .00000469  00000+0  47574-4 0  9993
2 53625  53.2143  92.6520 0001738  95.7252 264.3938 15.08839072115751
STARLINK-4554           
1 53626U 22104AQ  24269.79268768  .00000308  00000+0  37453-4 0  9993
2 53626  53.2154  92.5585 0001672  92.3462 267.7721 15.08842598115762
STARLINK-4595           
1 53627U 22104AR  24269.93253860  .00000738  00000+0  64475-4 0  9998
2 53627  53.2163  92.0122 0001383  93.0782 267.0368 15.08839809115780
STARLINK-4600           
1 53628U 22104AS  24269.91779480  .00000479  00000+0  48192-4 0  9998
2 53628  53.2149  91.9171 0001388  91.8919 268.2232 15.08846756115782
STARLINK-4602           
1 53629U 22104AT  24269.92884602  .00001063  00000+0  84834-4 0  9996
2 53629  53.2148  91.9886 0001433  92.0827 268.0330 15.08847233115785
STARLINK-4598           
1 53630U 22104AU  24269.83142087 -.00000298  00000+0 -65055-6 0  9999
2 53630  53.2159  82.8173 0001546  98.5226 261.5942 15.08837243116076
STARLINK-4599           
1 53631U 22104AV  24269.91411430 -.00000344  00000+0 -35114-5 0  9994
2 53631  53.2147  91.8982 0001487  83.6214 276.4948 15.08840852115786
STARLINK-4606           
1 53632U 22104AW  24269.82309274  .00000438  00000+0  45613-4 0  9993
2 53632  53.2152  82.7662 0001288  90.8191 269.2948 15.08838154116233
STARLINK-4593           
1 53633U 22104AX  24269.89301088  .00001468  00000+0  11031-3 0  9996
2 53633  53.2152  82.4898 0001411  91.9113 268.2041 15.08845415115911
STARLINK-4592           
1 53634U 22104AY  24269.88195263  .00000795  00000+0  68009-4 0  9992
2 53634  53.2161  82.4233 0001372  91.9299 268.1850 15.08845658116249
STARLINK-4587           
1 53635U 22104AZ  24269.88564305  .00006939  00000+0  45340-3 0  9998
2 53635  53.2146  82.4463 0001528  82.9524 277.1642 15.08861227116241
STARLINK-4586           
1 53636U 22104BA  24269.74213500  .00023642  00000+0  14965-2 0  9990
2 53636  53.2076  82.9679 0000380 102.0733 258.0302 15.08889711116226
STARLINK-4396           
1 53637U 22104BB  24269.90870715  .00000290  00000+0  36299-4 0  9996
2 53637  53.2158  82.5835 0001625  98.9880 261.1296 15.08841877116247
STARLINK-4594           
1 53638U 22104BC  24269.78993065  .00000761  00000+0  65920-4 0  9993
2 53638  53.2182  82.5659 0001614 100.1351 259.9824 15.08839847116231
STARLINK-4422           
1 53639U 22104BD  24269.20850585  .00000567  00000+0  53731-4 0  9991
2 53639  53.2167  85.3289 0001460  86.8213 273.2946 15.08839892115975
STARLINK-4597           
1 53640U 22104BE  24269.53602810  .00000524  00000+0  51038-4 0  9996
2 53640  53.2186  83.8199 0001496  92.9360 267.1804 15.08837026116198
STARLINK-4588           
1 53641U 22104BF  24269.74579193  .00000792  00000+0  67832-4 0  9993
2 53641  53.2144  82.9898 0001506  87.6383 272.4782 15.08845257116220
STARLINK-4622           
1 53648U 22105A   24269.69196579  .00000451  00000+0  39706-4 0  9999
2 53648  97.6572 149.0853 0001946  91.0900 269.0547 15.01267393113727
STARLINK-4386           
1 53649U 22105B   24269.95672329  .00000731  00000+0  61517-4 0  9997
2 53649  97.6586 149.3494 0001963  91.9669 268.1780 15.01264924113756
STARLINK-4380           
1 53650U 22105C   24269.62161312  .00000148  00000+0  16130-4 0  9991
2 53650  97.6588 149.0214 0002052  91.5276 268.6183 15.01264088113705
STARLINK-4388           
1 53651U 22105D   24269.95302278  .00002441  00000+0  19456-3 0  9997
2 53651  97.6574 149.3503 0002230  88.9880 271.1600 15.01256841113750
